IRIDIUM 33 DEB          
1 33960U 97051BV  26115.81627728  .00019919  00000+0  19302-2 0  9994
2 33960  86.2551 225.8933 0001139 174.1913 308.1062 14.92607736908622
IRIDIUM 33 DEB          
1 33966U 97051CB  26115.71060277  .00001332  00000+0  33711-3 0  9990
2 33966  86.3946 348.5266 0009457 108.3396 321.2165 14.50220471903833
IRIDIUM 33 DEB          
1 34071U 97051CE  26115.82854292  .00001494  00000+0  37923-3 0  9996
2 34071  86.3431 319.5351 0008723  34.8286 325.3488 14.50185087902777
IRIDIUM 33 DEB          
1 34077U 97051CL  26115.66926374  .00004781  00000+0  84248-3 0  9999
2 34077  86.3879 352.3974 0007195 299.1143  83.6095 14.67353559902952
IRIDIUM 33 DEB          
1 34079U 97051CN  26115.56376435  .00011881  00000+0  12834-2 0  9997
2 34079  86.3729 307.5503 0005037 213.0986 205.2004 14.88240735909651
IRIDIUM 33 DEB          
1 34091U 97051DA  26115.68689833  .00021511  00000+0  20510-2 0  9994
2 34091  86.3473   4.9361 0026404 173.3072 186.8514 14.92977673898588
IRIDIUM 33 DEB          
1 34159U 97051EN  26115.69050148  .00000735  00000+0  23165-3 0  9996
2 34159  86.3537 351.1336 0026569 203.8640 156.1328 14.38859902898852
IRIDIUM 33 DEB          
1 34375U 97051FT  26115.55567188  .00000733  00000+0  32880-3 0  9990
2 34375  86.4276 128.7783 0103880  62.6197  63.4365 14.18257562886082
IRIDIUM 33 DEB          
1 34376U 97051FU  26115.71394356  .00007995  00000+0  14730-2 0  9994
2 34376  86.2924 306.1665 0026655  76.5124 283.9057 14.65218415899672
IRIDIUM 33 DEB          
1 34486U 97051GB  26115.56392737  .00025781  00000+0  18212-2 0  9992
2 34486  86.3892 309.7841 0008420 358.5934  55.6571 15.04769657909935
