[{"OBJECT_NAME":"IRIDIUM 33 DEB","OBJECT_ID":"1997-051BV","EPOCH":"2026-04-25T19:35:26.357856","MEAN_MOTION":14.92607736,"ECCENTRICITY":0.00011395,"INCLINATION":86.2551,"RA_OF_ASC_NODE":225.8933,"ARG_OF_PERICENTER":174.1913,"MEAN_ANOMALY":308.1062,"EPHEMERIS_TYPE":0,"CLASSIFICATION_TYPE":"U","NORAD_CAT_ID":33960,"ELEMENT_SET_NO":999,"REV_AT_EPOCH":90862,"BSTAR":0.0019302243,"MEAN_MOTION_DOT":0.00019919,"MEAN_MOTION_DDOT":0},{"OBJECT_NAME":"IRIDIUM 33 DEB","OBJECT_ID":"1997-051CB","EPOCH":"2026-04-25T17:03:16.079328","MEAN_MOTION":14.50220471,"ECCENTRICITY":0.00094573,"INCLINATION":86.3946,"RA_OF_ASC_NODE":348.5266,"ARG_OF_PERICENTER":108.3396,"MEAN_ANOMALY":321.2165,"EPHEMERIS_TYPE":0,"CLASSIFICATION_TYPE":"U","NORAD_CAT_ID":33966,"ELEMENT_SET_NO":999,"REV_AT_EPOCH":90383,"BSTAR":0.00033711053,"MEAN_MOTION_DOT":1.332e-5,"MEAN_MOTION_DDOT":0},{"OBJECT_NAME":"IRIDIUM 33 DEB","OBJECT_ID":"1997-051CE","EPOCH":"2026-04-25T19:53:06.108288","MEAN_MOTION":14.50185087,"ECCENTRICITY":0.00087229,"INCLINATION":86.3431,"RA_OF_ASC_NODE":319.5351,"ARG_OF_PERICENTER":34.8286,"MEAN_ANOMALY":325.3488,"EPHEMERIS_TYPE":0,"CLASSIFICATION_TYPE":"U","NORAD_CAT_ID":34071,"ELEMENT_SET_NO":999,"REV_AT_EPOCH":90277,"BSTAR":0.00037922671,"MEAN_MOTION_DOT":1.494e-5,"MEAN_MOTION_DDOT":0},{"OBJECT_NAME":"IRIDIUM 33 DEB","OBJECT_ID":"1997-051CL","EPOCH":"2026-04-25T16:03:44.388000","MEAN_MOTION":14.67353559,"ECCENTRICITY":0.00071949,"INCLINATION":86.3879,"RA_OF_ASC_NODE":352.3974,"ARG_OF_PERICENTER":299.1143,"MEAN_ANOMALY":83.6095,"EPHEMERIS_TYPE":0,"CLASSIFICATION_TYPE":"U","NORAD_CAT_ID":34077,"ELEMENT_SET_NO":999,"REV_AT_EPOCH":90295,"BSTAR":0.0008424845,"MEAN_MOTION_DOT":4.781e-5,"MEAN_MOTION_DDOT":0},{"OBJECT_NAME":"IRIDIUM 33 DEB","OBJECT_ID":"1997-051CN","EPOCH":"2026-04-25T13:31:49.240704","MEAN_MOTION":14.88240735,"ECCENTRICITY":0.00050367,"INCLINATION":86.3729,"RA_OF_ASC_NODE":307.5503,"ARG_OF_PERICENTER":213.0986,"MEAN_ANOMALY":205.2004,"EPHEMERIS_TYPE":0,"CLASSIFICATION_TYPE":"U","NORAD_CAT_ID":34079,"ELEMENT_SET_NO":999,"REV_AT_EPOCH":90965,"BSTAR":0.0012834491,"MEAN_MOTION_DOT":0.00011881,"MEAN_MOTION_DDOT":0},{"OBJECT_NAME":"IRIDIUM 33 DEB","OBJECT_ID":"1997-051DA","EPOCH":"2026-04-25T16:29:08.016576","MEAN_MOTION":14.92977673,"ECCENTRICITY":0.00264043,"INCLINATION":86.3473,"RA_OF_ASC_NODE":4.9361,"ARG_OF_PERICENTER":173.3072,"MEAN_ANOMALY":186.8514,"EPHEMERIS_TYPE":0,"CLASSIFICATION_TYPE":"U","NORAD_CAT_ID":34091,"ELEMENT_SET_NO":999,"REV_AT_EPOCH":89858,"BSTAR":0.0020510313,"MEAN_MOTION_DOT":0.00021511,"MEAN_MOTION_DDOT":0},{"OBJECT_NAME":"IRIDIUM 33 DEB","OBJECT_ID":"1997-051EN","EPOCH":"2026-04-25T16:34:19.328736","MEAN_MOTION":14.38859902,"ECCENTRICITY":0.00265686,"INCLINATION":86.3537,"RA_OF_ASC_NODE":351.1336,"ARG_OF_PERICENTER":203.864,"MEAN_ANOMALY":156.1328,"EPHEMERIS_TYPE":0,"CLASSIFICATION_TYPE":"U","NORAD_CAT_ID":34159,"ELEMENT_SET_NO":999,"REV_AT_EPOCH":89885,"BSTAR":0.00023165116,"MEAN_MOTION_DOT":7.35e-6,"MEAN_MOTION_DDOT":0},{"OBJECT_NAME":"IRIDIUM 33 DEB","OBJECT_ID":"1997-051FT","EPOCH":"2026-04-25T13:20:10.050432","MEAN_MOTION":14.18257562,"ECCENTRICITY":0.01038797,"INCLINATION":86.4276,"RA_OF_ASC_NODE":128.7783,"ARG_OF_PERICENTER":62.6197,"MEAN_ANOMALY":63.4365,"EPHEMERIS_TYPE":0,"CLASSIFICATION_TYPE":"U","NORAD_CAT_ID":34375,"ELEMENT_SET_NO":999,"REV_AT_EPOCH":88608,"BSTAR":0.0003288037,"MEAN_MOTION_DOT":7.33e-6,"MEAN_MOTION_DDOT":0},{"OBJECT_NAME":"IRIDIUM 33 DEB","OBJECT_ID":"1997-051FU","EPOCH":"2026-04-25T17:08:04.724448","MEAN_MOTION":14.65218415,"ECCENTRICITY":0.00266551,"INCLINATION":86.2924,"RA_OF_ASC_NODE":306.1665,"ARG_OF_PERICENTER":76.5124,"MEAN_ANOMALY":283.9057,"EPHEMERIS_TYPE":0,"CLASSIFICATION_TYPE":"U","NORAD_CAT_ID":34376,"ELEMENT_SET_NO":999,"REV_AT_EPOCH":89967,"BSTAR":0.001472963,"MEAN_MOTION_DOT":7.995e-5,"MEAN_MOTION_DDOT":0},{"OBJECT_NAME":"IRIDIUM 33 DEB","OBJECT_ID":"1997-051GB","EPOCH":"2026-04-25T13:32:03.325632","MEAN_MOTION":15.04769657,"ECCENTRICITY":0.00084198,"INCLINATION":86.3892,"RA_OF_ASC_NODE":309.7841,"ARG_OF_PERICENTER":358.5934,"MEAN_ANOMALY":55.6571,"EPHEMERIS_TYPE":0,"CLASSIFICATION_TYPE":"U","NORAD_CAT_ID":34486,"ELEMENT_SET_NO":999,"REV_AT_EPOCH":90993,"BSTAR":0.0018212052,"MEAN_MOTION_DOT":0.00025781,"MEAN_MOTION_DDOT":0}]
